ONEWEB-0098             
1 45442U 20020U   24287.13977533  .00000468  00000+0  12840-2 0  9998
2 45442  87.8919 142.9841 0001963  76.8064 283.3283 13.11416450222429
ONEWEB-0055             
1 45443U 20020V   24287.88829700  .00002777  00000+0  77928-2 0  9996
2 45443  87.8920 142.8378 0001865  80.1955 279.9384 13.11446302222505
ONEWEB-0093             
1 45444U 20020W   24287.86373529 -.00000525  00000+0 -15166-2 0  9995
2 45444  87.8919 142.8249 0001811  86.1219 274.0115 13.11414653222569
ONEWEB-0029             
1 45445U 20020X   24287.11942998  .00000291  00000+0  78574-3 0  9997
2 45445  87.8922 142.9862 0001626  87.6455 272.4859 13.11418802222431
ONEWEB-0068             
1 45446U 20020Y   24287.85780556 -.00001512  00000+0 -43033-2 0  9999
2 45446  87.8919 142.8251 0001659  85.2983 274.8334 13.11422241222486
ONEWEB-0046             
1 45447U 20020Z   24287.85526421 -.00000598  00000+0 -17233-2 0  9995
2 45447  87.8920 142.8374 0001346  85.5220 274.6062 13.11415978222491
ONEWEB-0063             
1 45448U 20020AA  24287.12113604  .00000365  00000+0  99469-3 0  9993
2 45448  87.8920 142.9835 0001389  76.4416 283.6867 13.11421072222471
ONEWEB-0019             
1 45449U 20020AB  24287.85865191 -.00000564  00000+0 -16287-2 0  9998
2 45449  87.8924 142.8446 0001658  74.9667 285.1644 13.11414526222424
